P/2019 LM4 (Palomar),e,36.4172,72.8409,68.2684,5.704528,0.0723393,0.58535422,126.2813,03/29.0/2024,2000,g  9.5,4.0
# From MPC118095
C/2019 LB7 (Kleyna),e,164.2887,3.9189,336.6666,34.84678,0.0047914,0.92839805,8.7658,03/29.0/2024,2000,g 17.0,4.0
# From MPEC 2024-DC6
P/2019 M2 (ATLAS),e,12.2665,307.6114,332.5266,3.029903,0.1868792,0.64728996,325.7684,03/29.0/2024,2000,g 21.2,4.0
# From MPC118095
C/2019 M3 (ATLAS),e,99.5667,154.9730,87.9184,4879,0.0000029,0.99950308,0.0000,12/31.4149/2018,2000,g 12.2,4.0
# From MPEC 2023-JA2
C/2019 M4 (TESS),h,09/11.5801/2019,65.6783,52.6494,260.3703,1.002414,9.190119,2000,5.0,4.0
# From MPEC 2023-C45
C/2019 N1 (ATLAS),e,82.4504,13.5589,193.3787,1172,0.0000246,0.99854618,0.0000,11/30.9179/2020,2000,g  7.5,4.0
# From MPEC 2023-CD8
A/2019 N2,e,89.3512,276.1806,347.1574,1425,0.0000183,0.99863450,0.0000,08/22.6530/2019,2000,g 12.5,2.0
# From MPEC 2022-A21
C/2019 NJ3 (Lemmon),h,10/22.7427/2020,99.3888,142.4833,246.8937,1.001926,4.363396,2000,9.0,4.0
# From MPEC 2024-E07
C/2019 O2 (PANSTARRS),e,93.3123,48.2577,129.6098,58.33723,0.0022120,0.83402685,0.7905,03/29.0/2024,2000,g  5.0,4.0
# From MPEC 2024-F34
C/2019 O3 (Palomar),h,03/09.5400/2021,89.8111,300.4483,60.1310,1.004148,8.821383,2000,3.5,4.0
# From MPEC 2021-P47
A/2019 O4,e,115.0680,354.9283,61.8689,33.25858,0.0051386,0.89036617,7.7494,03/29.0/2024,2000,g 15.5,2.0
# From MPEC 2024-EF7
C/2019 Q1 (Lemmon),h,07/21.3470/2020,155.7312,42.4566,56.2399,1.001620,5.004915,2000,8.5,4.0
# From MPC117072
A/2019 Q2,e,159.0141,188.0430,176.4535,58.37201,0.0022100,0.97835037,0.0000,07/22.5458/2019,2000,g 18.0,2.0
# From MPC117072
P/2019 S2 (PANSTARRS),e,10.4647,93.1857,217.0826,4.745050,0.0953549,0.20507776,177.7397,03/29.0/2024,2000,g 13.5,4.0
# From MPEC 2022-CN4
P/2019 S3 (PANSTARRS),e,8.6939,150.1637,213.0653,3.415191,0.1561642,0.47100948,261.6137,03/29.0/2024,2000,g 18.3,4.0
# From MPEC 2021-S45
C/2019 S4 (Lemmon),e,92.1050,63.1581,71.3723,240.1323,0.0002649,0.98566738,0.0000,04/08.4681/2020,2000,g 11.0,4.0
# From MPEC 2023-N01
A/2019 T1,e,120.8617,6.9436,91.0489,38.83687,0.0040723,0.88981596,4.7605,03/29.0/2024,2000,g 13.0,2.0
# From MPEC 2023-R20
C/2019 T2 (Lemmon),e,111.4390,155.6556,239.4237,5016,0.0000028,0.99947262,0.0000,04/22.6586/2021,2000,g  9.0,4.0
# From MPEC 2023-UR6
C/2019 T3 (ATLAS),e,121.8431,139.5330,112.4607,3369,0.0000050,0.99823307,0.0000,03/04.3060/2021,2000,g  6.8,4.0
# From MPEC 2024-F34
C/2019 T4 (ATLAS),e,53.6295,199.9339,351.1336,899.1918,0.0000366,0.99528422,0.0000,06/08.7364/2022,2000,g  5.0,4.0
# From MPEC 2021-P47
P/2019 T5 (ATLAS),e,33.4944,247.6130,189.5843,8.001248,0.0435479,0.80978902,74.0494,03/29.0/2024,2000,g 15.0,4.0
# From MPEC 2021-P47
P/2019 T6 (PANSTARRS),e,18.6990,71.2478,329.0109,5.439896,0.0776816,0.62300552,124.4464,03/29.0/2024,2000,g 15.5,4.0
# From MPC118096
P/2019 U4 (PANSTARRS),e,11.6981,200.0188,181.0432,3.519752,0.1492574,0.47597225,246.5198,03/29.0/2024,2000,g 19.0,4.0
# From MPEC 2024-F34
C/2019 U5 (PANSTARRS),h,03/29.7121/2023,113.5149,2.6325,181.4715,1.000967,3.623918,2000,4.5,4.0
# From MPEC 2022-H04
C/2019 U6 (Lemmon),e,60.9660,235.7887,329.5029,319.8494,0.0001723,0.99715152,0.0000,06/18.2776/2020,2000,g 10.0,4.0
# From MPEC 2022-N37
C/2019 V1 (Borisov),e,61.9336,83.1512,51.1709,1801,0.0000129,0.99828206,0.0000,07/16.7837/2020,2000,g 11.0,4.0
# From MPEC 2022-L66
P/2019 V2 (Groeller),e,11.8075,189.1749,335.6560,7.496017,0.0480240,0.33132153,60.4732,03/29.0/2024,2000,g 10.0,4.0
# From MPEC 2023-A50
P/2019 W1 (PANSTARRS),e,23.4745,35.3758,18.7915,4.548815,0.1015913,0.26729120,181.2990,03/29.0/2024,2000,g 12.9,4.0
# From MPEC 2021-P47
P/2019 X1 (Pruyne),e,10.2501,43.6796,36.8535,6.175931,0.0642171,0.30393001,109.8599,03/29.0/2024,2000,g 10.4,4.0
# From MPEC 2020-C98
P/2019 X2 (Pan-STARRS),e,15.8953,250.8403,213.4543,3.635891,0.1421634,0.50010624,223.3202,03/29.0/2024,2000,g 18.0,4.0
# From MPC119999
C/2019 Y1 (ATLAS),e,73.3727,31.5375,57.9100,87.26211,0.0012091,0.99051301,0.0000,03/16.4750/2020,2000,g 13.7,4.0
# From MPEC 2020-C98
P/2019 Y3 (Catalina),e,24.6008,139.3025,2.5783,3.014443,0.1883187,0.69114148,296.1241,03/29.0/2024,2000,g 18.5,4.0
# From MPEC 2024-A43
C/2019 Y4 (ATLAS),e,45.0947,120.7196,177.4426,352.9537,0.0001486,0.99927393,0.0000,05/30.5453/2020,2000,g 11.8,6.0
# From MPEC 2020-L06
C/2019 Y4-A (ATLAS),h,05/30.5805/2020,45.5346,121.0835,177.2763,1.001409,0.254429,2000,11.6,6.0
# From MPEC 2023-J29
C/2019 Y4-B (ATLAS),h,05/30.5541/2020,45.2247,120.8265,177.3870,1.000005,0.255742,2000,12.1,6.0
# From MPEC 2020-L06
C/2019 Y4-C (ATLAS),h,05/30.5330/2020,45.3174,120.8104,177.3095,1.002135,0.255503,2000,12.7,6.0
# From MPEC 2020-L06
C/2019 Y4-D (ATLAS),e,45.3653,121.1795,177.4488,68.14685,0.0017520,0.99626083,0.0000,05/30.6539/2020,2000,g 12.5,6.0
# From MPEC 2023-A50
C/2019 Y5 (PANSTARRS),e,82.7612,51.7503,303.6037,720.0770,0.0000510,0.99316016,0.0000,08/17.4700/2019,2000,g 11.0,4.0
# From MPEC 2023-A50
A/2020 A1,e,149.0337,119.1455,302.4401,25.54097,0.0076357,0.93473194,12.0598,03/29.0/2024,2000,g 18.0,2.0
# From MPEC 2022-YN2
C/2020 A2 (Iwamoto),e,120.5686,286.2475,68.0418,1192,0.0000239,0.99918347,0.0000,01/08.2078/2020,2000,g 13.5,4.0
# From MPEC 2023-A50
C/2020 A3 (ATLAS),h,06/28.4708/2019,146.6470,120.8045,268.3096,1.000172,5.755967,2000,8.0,4.0
# From MPEC 2022-P91
P/2020 A4 (PANSTARRS-Lemmon),e,24.9932,312.3444,144.7976,8.196421,0.0420018,0.65432120,66.6742,03/29.0/2024,2000,g 15.0,4.0
# From MPEC 2020-N08
A/2020 B1,e,18.5249,309.9028,154.7547,51.63508,0.0026564,0.96632541,4.1283,03/29.0/2024,2000,g 21.0,2.0
# From MPEC 2020-HN5
C/2020 B2 (Lemmon),e,55.7524,354.2676,143.5949,67.66727,0.0017707,0.95923405,2.6971,03/29.0/2024,2000,g 10.0,4.0
# From MPEC 2022-N37
C/2020 B3 (Rankin),e,20.7083,185.8226,324.8836,946.8942,0.0000338,0.99648134,0.0000,10/19.7953/2019,2000,g 13.0,4.0
# From MPEC 2023-KD6
P/2020 B4 (Sheppard),e,11.6073,185.9738,341.9936,7.968115,0.0438198,0.19216894,37.7621,03/29.0/2024,2000,g 10.5,4.0
# From MPEC 2024-F34
C/2020 F2 (ATLAS),h,07/13.9410/2022,163.5895,250.3016,48.2922,1.004629,8.815241,2000,4.5,4.0
# From MPEC 2021-O56
C/2020 F3 (NEOWISE),e,129.1464,61.0937,37.3899,378.5845,0.0001338,0.99922091,0.0000,07/04.1574/2020,2000,g  7.5,5.2
# From MPEC 2024-BE0
C/2020 F5 (MASTER),e,52.2095,350.5044,310.6753,170.3624,0.0004432,0.97460483,0.0000,03/17.0052/2021,2000,g  6.5,3.2
# From MPEC 2020-L06
C/2020 F6 (PANSTARRS),e,174.5831,207.8926,344.4638,377.4531,0.0001344,0.99072390,0.0000,04/11.4188/2020,2000,g 14.5,2.8
# From MPEC 2024-A43
C/2020 F7 (Lemmon),e,93.9585,321.8514,227.9504,555.9411,0.0000752,0.99040788,0.0000,11/13.6274/2021,2000,g  7.0,4.0
# From MPEC 2023-J29
C/2020 F8 (SWAN),h,05/26.8408/2020,110.5792,259.8294,68.0746,1.000139,0.430175,2000,10.0,4.0
# From MPEC 2020-L06
P/2020 G1 (Pimentel),e,18.5112,240.1102,207.6174,3.607734,0.1438310,0.86065506,211.6906,03/29.0/2024,2000,g 17.0,4.0
# From MPEC 2022-YB4
C/2020 H2 (Pruyne),e,124.8400,277.6704,26.6298,185.1373,0.0003913,0.99551820,0.0000,04/27.6913/2020,2000,g 14.0,3.2
# From MPEC 2020-HM1
C/2020 H3 (Wierzchos),p,06/05.7162/2020,62.5292,30.4456,2.300288,270.6227,2000,13.5,4.0
# From MPEC 2020-L06
C/2020 H4 (Leonard),e,84.4970,307.5863,117.5200,47.81714,0.0029808,0.98066103,0.0000,08/29.5866/2020,2000,g 15.0,3.2
# From MPEC 2024-F34
C/2020 H5 (Robinson),e,70.2531,210.6267,326.2984,4495,0.0000033,0.99792242,0.0000,12/10.2146/2020,2000,g  5.0,4.0
# From MPEC 2024-AF0
C/2020 H6 (ATLAS),e,79.9783,213.7180,20.2565,3402,0.0000050,0.99861859,0.0000,09/30.2364/2021,2000,g  8.0,3.2
# From MPEC 2020-KB7
C/2020 H7 (Lemmon),e,135.9235,323.5194,82.6780,1405,0.0000187,0.99685380,0.0000,06/02.9510/2020,2000,g 11.0,4.0
# From MPEC 2021-N06
C/2020 H8 (PANSTARRS),e,99.7036,68.4406,128.9023,599.7140,0.0000671,0.99221056,0.0000,06/04.5795/2020,2000,g 10.5,4.0
# From MPEC 2022-ED3
A/2020 H9,e,137.8786,213.1777,312.7615,362.3343,0.0001429,0.99291050,0.0000,12/21.8743/2019,2000,g 18.0,2.0
# From MPEC 2023-HN7
C/2020 H11 (PANSTARRS-Lemmon),h,09/14.2699/2020,151.3894,303.0474,91.4280,1.001494,7.624172,2000,8.5,4.0
# From MPEC 2023-KD6
C/2020 J1 (SONEAR),h,04/18.5245/2021,142.3059,226.6101,341.6885,1.000447,3.349951,2000,8.5,3.2
# From MPEC 2024-F34
C/2020 K1 (PANSTARRS),e,89.6731,94.3621,213.9820,8608,0.0000012,0.99964294,0.0000,05/09.0548/2023,2000,g  5.5,4.0
# From MPEC 2021-N06
C/2020 K2 (PANSTARRS),h,08/05.9154/2020,91.0066,288.4132,67.3440,1.002689,8.880579,2000,10.8,4.0
# From MPEC 2020-KF9
C/2020 K3 (Leonard),p,06/01.0032/2020,129.0152,64.4924,1.583069,28.3546,2000,14.5,4.0
# From MPEC 2020-L06
C/2020 K4 (PANSTARRS),e,125.5853,264.2474,308.8573,23.96828,0.0083994,0.92695268,12.4786,03/29.0/2024,2000,g 16.5,4.0
# From MPEC 2021-R75
C/2020 K5 (PANSTARRS),h,06/05.1485/2021,67.0864,86.1508,249.6270,1.001171,1.538130,2000,11.0,4.0
# From MPEC 2023-N01
C/2020 K6 (Rankin),h,09/15.6398/2021,103.6436,291.5768,44.3277,1.003354,5.868289,2000,8.0,4.0
# From MPEC 2023-A50
C/2020 K7 (PANSTARRS),e,32.0441,286.1052,358.2038,96.85015,0.0010341,0.93398095,1.6700,03/29.0/2024,2000,g  8.0,4.0
# From MPEC 2021-P47
C/2020 K8 (Catalina-ATLAS),h,09/15.1953/2020,31.4386,181.4842,259.9846,1.000237,0.471135,2000,15.0,3.2
# From MPEC 2021-BE3
P/2020 K9 (Lemmon-PANSTARRS),e,23.2030,166.3132,197.0675,4.204920,0.1143056,0.32086490,130.3879,03/29.0/2024,2000,g 12.5,4.0
# From MPEC 2023-C45
P/2020 M1 (PANSTARRS),e,8.5334,142.6027,72.6110,5.315577,0.0804227,0.47306901,125.2129,03/29.0/2024,2000,g 14.5,4.0
# From MPEC 2022-H30
C/2020 M3 (ATLAS),e,23.4707,71.1759,328.5855,27.20860,0.0069446,0.95331603,8.6807,03/29.0/2024,2000,g 14.5,4.0
# From MPEC 2023-N01
A/2020 M4,h,11/23.8354/2020,160.1181,348.6233,104.5831,1.000858,5.947030,2000,14.5,2.0
# From MPC xxxxx
P/2020 MK4 (PANSTARRS),e,6.7877,0.6995,94.7602,6.216639,0.0635873,0.01334126,287.7817,03/29.0/2024,2000,g  8.0,4.0
# From MPEC 2023-FK0
C/2020 M5 (ATLAS),h,08/19.8586/2021,93.2036,352.0721,126.2698,1.000299,3.000921,2000,9.0,4.0
# From MPEC 2022-GA9
